NORAD_CAT_ID,OBJECT_NAME,OBJECT_TYPE,EPOCH,MEAN_MOTION,ECCENTRICITY,INCLINATION,RA_OF_ASC_NODE,ARG_OF_PERICENTER,MEAN_ANOMALY,BSTAR,MEAN_MOTION_DOT,MEAN_MOTION_DDOT,TLE_LINE0,TLE_LINE1,TLE_LINE2,SEMIMAJOR_AXIS,PERIOD,APOGEE,PERIGEE,DECAYED
54781.0,STARLINK-5443,PAYLOAD,2023-10-06 13:16:37,15.08844529,0.0001149,53.2173,42.6698,78.2594,281.8527,0.0019547,0.00030962,0.0,0 STARLINK-5443,1 54781U 22175Z   23279.55321167  .00030962  00000-0  19547-2 0  9993,2 54781  53.2173  42.6698 0001149  78.2594 281.8527 15.08844529 46507,6917.867,95.437,540.526,538.937,0.0
54781.0,STARLINK-5443,PAYLOAD,2023-10-06 14:52:00,15.08842286,0.0001193,53.2172,42.372,79.1635,280.9492,0.0019159,0.00030337,0.0,0 STARLINK-5443,1 54781U 22175Z   23279.61945242  .00030337  00000-0  19159-2 0  9991,2 54781  53.2172  42.3720 0001193  79.1635 280.9492 15.08842286 44354,6917.873,95.437,540.564,538.913,0.0
54781.0,STARLINK-5443,PAYLOAD,2023-10-06 19:38:10,15.08854674,0.0001252,53.2172,41.4792,80.2729,279.8405,0.0021169,0.00033577,0.0,0 STARLINK-5443,1 54781U 22175Z   23279.81817158  .00033577  00000-0  21169-2 0  9990,2 54781  53.2172  41.4792 0001252  80.2729 279.8405 15.08854674 46544,6917.836,95.437,540.567,538.834,0.0
54781.0,STARLINK-5443,PAYLOAD,2023-10-07 13:07:24,15.08859425,0.0001203,53.2173,38.2083,86.256,273.857,0.0019312,0.00030597,0.0,0 STARLINK-5443,1 54781U 22175Z   23280.54681279  .00030597  00000-0  19312-2 0  9991,2 54781  53.2173  38.2083 0001203  86.2560 273.8570 15.08859425 46655,6917.821,95.436,540.518,538.854,0.0
54781.0,STARLINK-5443,PAYLOAD,2023-10-07 17:53:33,15.08863752,0.0001255,53.2178,37.3164,84.8294,275.2841,0.0017644,0.00027922,0.0,0 STARLINK-5443,1 54781U 22175Z   23280.74553094  .00027922  00000-0  17644-2 0  9990,2 54781  53.2178  37.3164 0001255  84.8294 275.2841 15.08863752 44524,6917.808,95.436,540.541,538.805,0.0
54781.0,STARLINK-5443,PAYLOAD,2023-10-07 19:28:57,15.08856135,0.0001236,53.2178,37.0182,79.4127,280.7005,0.0012062,0.00018969,0.0,0 STARLINK-5443,1 54781U 22175Z   23280.81177117  .00018969  00000-0  12062-2 0  9996,2 54781  53.2178  37.0182 0001236  79.4127 280.7005 15.08856135 46695,6917.831,95.437,540.551,538.841,0.0
54781.0,STARLINK-5443,PAYLOAD,2023-10-08 14:33:34,15.08838197,0.0001375,53.2181,33.4506,84.1823,275.9326,0.00013936,1.931e-05,0.0,0 STARLINK-5443,1 54781U 22175Z   23281.60664839  .00001931  00000-0  13936-3 0  9999,2 54781  53.2181  33.4506 0001375  84.1823 275.9326 15.08838197 46813,6917.886,95.438,540.702,538.8,0.0
54781.0,STARLINK-5443,PAYLOAD,2023-10-08 19:19:43,15.08845434,0.0001316,53.2181,32.5576,80.4779,279.6362,0.00051197,7.871e-05,0.0,0 STARLINK-5443,1 54781U 22175Z   23281.80536803  .00007871  00000-0  51197-3 0  9990,2 54781  53.2181  32.5576 0001316  80.4779 279.6362 15.08845434 46840,6917.864,95.437,540.639,538.818,0.0
54781.0,STARLINK-5443,PAYLOAD,2023-10-09 00:05:53,15.08831295,0.0001284,53.2184,31.6659,83.9256,276.1883,-0.00014374,-2.574e-05,0.0,0 STARLINK-5443,1 54781U 22175Z   23282.00409240 -.00002574  00000-0 -14374-3 0  9990,2 54781  53.2184  31.6659 0001284  83.9256 276.1883 15.08831295 44711,6917.907,95.438,540.66,538.884,0.0
54781.0,STARLINK-5443,PAYLOAD,2023-10-09 14:24:21,15.08866277,0.0001331,53.2178,28.9915,80.4971,279.6172,0.0024234,0.00038519,0.0,0 STARLINK-5443,1 54781U 22175Z   23282.60025148  .00038519  00000-0  24234-2 0  9998,2 54781  53.2178  28.9915 0001331  80.4971 279.6172 15.08866277 46963,6917.8,95.436,540.586,538.744,0.0
54781.0,STARLINK-5443,PAYLOAD,2023-10-09 17:35:07,15.0887958,0.0001381,53.218,28.3957,81.9526,278.1623,0.0026507,0.00042197,0.0,0 STARLINK-5443,1 54781U 22175Z   23282.73272824  .00042197  00000-0  26507-2 0  9999,2 54781  53.2180  28.3957 0001381  81.9526 278.1623 15.08879580 44822,6917.759,95.435,540.58,538.669,0.0
54781.0,STARLINK-5443,PAYLOAD,2023-10-10 11:04:22,15.08855739,0.0002499,53.2179,25.1243,71.1812,288.9451,0.0014597,0.0002303,0.0,0 STARLINK-5443,1 54781U 22175Z   23283.46137172  .00023030  00000-0  14597-2 0  9997,2 54781  53.2179  25.1243 0002499  71.1812 288.9451 15.08855739 44933,6917.832,95.437,541.426,537.969,0.0
54781.0,STARLINK-5443,PAYLOAD,2023-10-10 12:39:45,15.0885581,0.0001794,53.2182,24.8273,85.2539,274.8658,0.0013448,0.00021189,0.0,0 STARLINK-5443,1 54781U 22175Z   23283.52760872  .00021189  00000-0  13448-2 0  9990,2 54781  53.2182  24.8273 0001794  85.2539 274.8658 15.08855810 47100,6917.832,95.437,540.938,538.456,0.0
54781.0,STARLINK-5443,PAYLOAD,2023-10-10 19:01:17,15.08881918,0.0001387,53.2174,23.637,102.4435,257.6713,0.0020465,0.0003247,0.0,0 STARLINK-5443,1 54781U 22175Z   23283.79256049  .00032470  00000-0  20465-2 0  9997,2 54781  53.2174  23.6370 0001387 102.4435 257.6713 15.08881918 47144,6917.752,95.435,540.577,538.658,0.0
54781.0,STARLINK-5443,PAYLOAD,2023-10-11 10:55:09,15.08832843,0.0001549,53.2181,20.6654,87.0577,273.0593,0.0012366,0.00019443,0.0,0 STARLINK-5443,1 54781U 22175Z   23284.45497327  .00019443  00000-0  12366-2 0  9993,2 54781  53.2181  20.6654 0001549  87.0577 273.0593 15.08832843 45081,6917.902,95.438,540.839,538.696,0.0
54781.0,STARLINK-5443,PAYLOAD,2023-10-11 14:05:56,15.08835375,0.0001452,53.2178,20.0705,83.84,276.2757,0.0018355,0.00029041,0.0,0 STARLINK-5443,1 54781U 22175Z   23284.58745472  .00029041  00000-0  18355-2 0  9993,2 54781  53.2178  20.0705 0001452  83.8400 276.2757 15.08835375 47262,6917.895,95.438,540.764,538.755,0.0
54781.0,STARLINK-5443,PAYLOAD,2023-10-11 23:38:14,15.08830117,0.0001045,53.2177,18.2861,97.2858,262.8253,0.00066951,0.00010381,0.0,0 STARLINK-5443,1 54781U 22175Z   23284.98489576  .00010381  00000-0  66951-3 0  9990,2 54781  53.2177  18.2861 0001045  97.2858 262.8253 15.08830117 45165,6917.911,95.438,540.499,539.053,0.0
54781.0,STARLINK-5443,PAYLOAD,2023-10-12 10:45:57,15.08854585,0.0001394,53.2168,16.2044,87.6017,272.5135,0.0020189,0.00032002,0.0,0 STARLINK-5443,1 54781U 22175Z   23285.44857774  .00032002  00000-0  20189-2 0  9997,2 54781  53.2168  16.2044 0001394  87.6017 272.5135 15.08854585 45233,6917.836,95.437,540.665,538.736,0.0
54781.0,STARLINK-5443,PAYLOAD,2023-10-12 12:21:20,15.08861767,0.0001473,53.2169,15.9072,85.4037,274.7124,0.0024285,0.00038597,0.0,0 STARLINK-5443,1 54781U 22175Z   23285.51481726  .00038597  00000-0  24285-2 0  9991,2 54781  53.2169  15.9072 0001473  85.4037 274.7124 15.08861767 47400,6917.814,95.436,540.698,538.66,0.0
54781.0,STARLINK-5443,PAYLOAD,2023-10-12 18:42:52,15.08883819,0.0001532,53.2171,14.7175,83.5851,276.5315,0.002712,0.0004319,0.0,0 STARLINK-5443,1 54781U 22175Z   23285.77977189  .00043190  00000-0  27120-2 0  9998,2 54781  53.2171  14.7175 0001532  83.5851 276.5315 15.08883819 47441,6917.746,95.435,540.671,538.552,0.0
54781.0,STARLINK-5443,PAYLOAD,2023-10-12 23:29:01,15.08839265,0.0001422,53.2183,13.8248,102.3838,257.7313,-0.0002827,-4.784e-05,0.0,0 STARLINK-5443,1 54781U 22175Z   23285.97849497 -.00004784  00000-0 -28270-3 0  9996,2 54781  53.2183  13.8248 0001422 102.3838 257.7313 15.08839265 45317,6917.883,95.438,540.731,538.764,0.0
54781.0,STARLINK-5443,PAYLOAD,2023-10-13 12:12:07,15.08864238,0.0001588,53.2183,11.4463,96.6844,263.4329,0.0028928,0.00046083,0.0,0 STARLINK-5443,1 54781U 22175Z   23286.50841724  .00046083  00000-0  28928-2 0  9996,2 54781  53.2183  11.4463 0001588  96.6844 263.4329 15.08864238 45392,6917.806,95.436,540.77,538.573,0.0
54781.0,STARLINK-5443,PAYLOAD,2023-10-14 10:27:30,15.08860602,0.0001843,53.2176,7.2855,97.0295,263.0907,0.00087936,0.00013743,0.0,0 STARLINK-5443,1 54781U 22175Z   23287.43577339  .00013743  00000-0  87936-3 0  9999,2 54781  53.2176   7.2855 0001843  97.0295 263.0907 15.08860602 45536,6917.817,95.436,540.957,538.407,0.0
54781.0,STARLINK-5443,PAYLOAD,2023-10-14 12:02:53,15.08859138,0.0001751,53.2182,6.9882,95.9637,264.1555,0.00063723,9.873e-05,0.0,0 STARLINK-5443,1 54781U 22175Z   23287.50201255  .00009873  00000-0  63723-3 0  9995,2 54781  53.2182   6.9882 0001751  95.9637 264.1555 15.08859138 47708,6917.822,95.436,540.898,538.476,0.0
54781.0,STARLINK-5443,PAYLOAD,2023-10-15 10:18:18,15.08829724,0.000161,53.2184,2.8206,114.87,245.246,-0.00025493,-4.342e-05,0.0,0 STARLINK-5443,1 54781U 22175Z   23288.42938023 -.00004342  00000-0 -25493-3 0  9997,2 54781  53.2184   2.8206 0001610 114.8700 245.2460 15.08829724 45689,6917.912,95.438,540.891,538.663,0.0
54781.0,STARLINK-5443,PAYLOAD,2023-10-15 11:53:41,15.0882683,0.0001454,53.2179,2.5262,101.0046,259.1109,-0.00019215,-3.344e-05,0.0,0 STARLINK-5443,1 54781U 22175Z   23288.49562321 -.00003344  00000-0 -19215-3 0  9994,2 54781  53.2179   2.5262 0001454 101.0046 259.1109 15.08826830 47859,6917.921,95.438,540.792,538.78,0.0
54781.0,STARLINK-5443,PAYLOAD,2023-10-15 15:04:28,15.08827929,0.0001476,53.2182,1.9298,101.1835,258.9323,-0.00014094,-2.53e-05,0.0,0 STARLINK-5443,1 54781U 22175Z   23288.62810460 -.00002530  00000-0 -14094-3 0  9995,2 54781  53.2182   1.9298 0001476 101.1835 258.9323 15.08827929 47873,6917.917,95.438,540.803,538.761,0.0
54781.0,STARLINK-5443,PAYLOAD,2023-10-16 05:22:56,15.08839307,0.0001339,53.2184,359.2535,103.9275,256.1866,-1.1282e-05,-4.67e-06,0.0,0 STARLINK-5443,1 54781U 22175Z   23289.22426339 -.00000467  00000-0 -11282-4 0  9994,2 54781  53.2184 359.2535 0001339 103.9275 256.1866 15.08839307 45800,6917.883,95.438,540.674,538.821,0.0
54781.0,STARLINK-5443,PAYLOAD,2023-10-16 11:44:28,15.08847114,0.0001567,53.2184,358.0683,95.6839,264.4331,0.00030912,4.636e-05,0.0,0 STARLINK-5443,1 54781U 22175Z   23289.48922075  .00004636  00000-0  30912-3 0  9990,2 54781  53.2184 358.0683 0001567  95.6839 264.4331 15.08847114 48006,6917.859,95.437,540.808,538.64,0.0
54781.0,STARLINK-5443,PAYLOAD,2023-10-17 11:35:16,15.08847459,0.0001479,53.2181,353.6064,99.1514,260.9645,0.00039984,6.082e-05,0.0,0 STARLINK-5443,1 54781U 22175Z   23290.48282574  .00006082  00000-0  39984-3 0  9990,2 54781  53.2181 353.6064 0001479  99.1514 260.9645 15.08847459 45994,6917.858,95.437,540.746,538.699,0.0
